NORAD_CAT_ID,OBJECT_NAME,OBJECT_TYPE,EPOCH,MEAN_MOTION,ECCENTRICITY,INCLINATION,RA_OF_ASC_NODE,ARG_OF_PERICENTER,MEAN_ANOMALY,BSTAR,MEAN_MOTION_DOT,MEAN_MOTION_DDOT,TLE_LINE0,TLE_LINE1,TLE_LINE2,SEMIMAJOR_AXIS,PERIOD,APOGEE,PERIGEE,DECAYED
51980.0,STARLINK-3649,PAYLOAD,2022-03-24 22:00:00,15.731749,0.000109,53.2181,63.7561,83.3239,305.3135,0.00049329,0.00069106,0.0,0 STARLINK-3649,1 51980U 22025AA  22083.91667824  .00069106  00000-0  49329-3 0  9994,2 51980  53.2181  63.7561 0001090  83.3239 305.3135 15.73174900  2639,6727.967,91.535,350.565,349.098,0.0
51980.0,STARLINK-3649,PAYLOAD,2022-03-25 04:00:00,15.7324453,0.000113,53.218,62.5207,72.595,292.7198,-0.00074011,-0.00103416,0.0,0 STARLINK-3649,1 51980U 22025AA  22084.16667824 -.00103416  00000-0 -74011-3 0  9993,2 51980  53.2180  62.5207 0001130  72.5950 292.7198 15.73244530  3723,6727.768,91.531,350.39300000000014,348.87300000000016,0.0
51980.0,STARLINK-3649,PAYLOAD,2022-03-25 12:00:00,15.73203087,0.0001181,53.218,60.8715,69.2271,25.0216,-0.00041153,-0.00057985,0.0,0 STARLINK-3649,1 51980U 22025AA  22084.50001157 -.00057985  00000-0 -41153-3 0  9992,2 51980  53.2180  60.8715 0001181  69.2271  25.0216 15.73203087  3778,6727.886,91.533,350.546,348.957,0.0
51980.0,STARLINK-3649,PAYLOAD,2022-03-25 14:00:01,15.73209021,0.000112,53.2181,60.4586,73.3933,133.0811,-0.00060981,-0.0008537,0.0,0 STARLINK-3649,1 51980U 22025AA  22084.58334491 -.00085370  00000-0 -60981-3 0  9999,2 51980  53.2181  60.4586 0001120  73.3933 133.0811 15.73209021  2746,6727.869000000002,91.533,350.48800000000006,348.981,0.0
51980.0,STARLINK-3649,PAYLOAD,2022-03-25 22:00:01,15.73147357,0.0001053,53.2185,58.8078,82.4486,212.9871,0.00054361,0.00076193,0.0,0 STARLINK-3649,1 51980U 22025AA  22084.91668981  .00076193  00000-0  54361-3 0  9996,2 51980  53.2185  58.8078 0001053  82.4486 212.9871 15.73147357  2797,6728.045,91.536,350.619,349.202,0.0
51980.0,STARLINK-3649,PAYLOAD,2022-03-26 04:00:00,15.73189875,0.0001156,53.2183,57.5725,73.2311,198.8087,0.00023993,0.00033171,0.0,0 STARLINK-3649,1 51980U 22025AA  22085.16667824  .00033171  00000-0  23993-3 0  9995,2 51980  53.2183  57.5725 0001156  73.2311 198.8087 15.73189875  3882,6727.924,91.534,350.56699999999995,349.011,0.0
51980.0,STARLINK-3649,PAYLOAD,2022-03-26 14:00:01,15.732745199999998,0.0001212,53.218,55.51,75.2714,37.9225,-0.00086605,-0.00120817,0.0,0 STARLINK-3649,1 51980U 22025AA  22085.58334491 -.00120817  00000-0 -86605-3 0  9997,2 51980  53.2180  55.5100 0001212  75.2714  37.9225 15.73274520  2907,6727.683000000001,91.529,350.36300000000006,348.732,0.0
51980.0,STARLINK-3649,PAYLOAD,2022-03-26 20:00:01,15.73165388,0.0001277,53.218,54.2718,87.7578,2.1776,0.00058853,0.00082669,0.0,0 STARLINK-3649,1 51980U 22025AA  22085.83334491  .00082669  00000-0  58853-3 0  9999,2 51980  53.2180  54.2718 0001277  87.7578   2.1776 15.73165388  3980,6727.994000000002,91.535,350.718,349.0,0.0
51980.0,STARLINK-3649,PAYLOAD,2022-03-26 22:00:00,15.73207238,0.0001301,53.2182,53.8596,90.1653,111.9859,9.5672e-05,0.00012831,0.0,0 STARLINK-3649,1 51980U 22025AA  22085.91667824  .00012831  00000-0  95672-4 0  9992,2 51980  53.2182  53.8596 0001301  90.1653 111.9859 15.73207238  2959,6727.875,91.533,350.615,348.86400000000015,0.0
51980.0,STARLINK-3649,PAYLOAD,2022-03-27 04:00:00,15.73205877,0.0001218,53.218,52.6242,78.0847,100.7707,-0.00032595,-0.00046125,0.0,0 STARLINK-3649,1 51980U 22025AA  22086.16667824 -.00046125  00000-0 -32595-3 0  9999,2 51980  53.2180  52.6242 0001218  78.0847 100.7707 15.73205877  4035,6727.878000000002,91.533,350.56300000000016,348.9240000000001,0.0
51980.0,STARLINK-3649,PAYLOAD,2022-03-27 12:00:00,15.73213137,0.0001091,53.218,50.9744,77.1997,190.5801,0.00020144,0.0002776,0.0,0 STARLINK-3649,1 51980U 22025AA  22086.50001157  .00027760  00000-0  20144-3 0  9997,2 51980  53.2180  50.9744 0001091  77.1997 190.5801 15.73213137  4094,6727.858,91.532,350.457,348.98900000000015,0.0
51980.0,STARLINK-3649,PAYLOAD,2022-03-27 14:00:01,15.73229691,0.0001109,53.2182,50.5615,81.4246,298.588,4.0854e-05,5.124e-05,0.0,0 STARLINK-3649,1 51980U 22025AA  22086.58334491  .00005124  00000-0  40854-4 0  9996,2 51980  53.2182  50.5615 0001109  81.4246 298.5880 15.73229691  3068,6727.811,91.531,350.422,348.92900000000014,0.0
51980.0,STARLINK-3649,PAYLOAD,2022-03-27 22:00:01,15.73228138,0.0001272,53.2187,48.9109,89.3567,19.684,5.681100000000001e-06,1.78e-06,0.0,0 STARLINK-3649,1 51980U 22025AA  22086.91668981  .00000178  00000-0  56811-5 0  9992,2 51980  53.2187  48.9109 0001272  89.3567  19.6840 15.73228138  3115,6727.815,91.532,350.536,348.824,0.0
51980.0,STARLINK-3649,PAYLOAD,2022-03-28 04:00:00,15.73266534,0.000127,53.2185,47.6755,80.8446,4.8632,-0.00049386,-0.00069556,0.0,0 STARLINK-3649,1 51980U 22025AA  22087.16667824 -.00069556  00000-0 -49386-3 0  9999,2 51980  53.2185  47.6755 0001270  80.8446   4.8632 15.73266534  4192,6727.705,91.529,350.425,348.716,0.0
51980.0,STARLINK-3649,PAYLOAD,2022-03-28 14:00:01,15.73193217,9.21e-05,53.2183,45.6124,86.3166,200.687,0.00012349,0.00016741,0.0,0 STARLINK-3649,1 51980U 22025AA  22087.58335648  .00016741  00000-0  12349-3 0  9996,2 51980  53.2183  45.6124 0000921  86.3166 200.6870 15.73193217  3220,6727.915,91.534,350.399,349.16,0.0
51980.0,STARLINK-3649,PAYLOAD,2022-03-28 20:00:01,15.73209625,8.97e-05,53.2183,44.3744,96.6333,166.9857,0.00015375,0.00021021,0.0,0 STARLINK-3649,1 51980U 22025AA  22087.83334491  .00021021  00000-0  15375-3 0  9998,2 51980  53.2183  44.3744 0000897  96.6333 166.9857 15.73209625  4306,6727.868,91.533,350.336,349.129,0.0
51980.0,STARLINK-3649,PAYLOAD,2022-03-28 22:00:00,15.73246744,9.26e-05,53.2185,43.9625,94.8762,280.9679,-0.00037753,-0.00053372,0.0,0 STARLINK-3649,1 51980U 22025AA  22087.91667824 -.00053372  00000-0 -37753-3 0  9996,2 51980  53.2185  43.9625 0000926  94.8762 280.9679 15.73246744  3277,6727.762,91.53,350.25,349.004,0.0
51980.0,STARLINK-3649,PAYLOAD,2022-03-29 04:00:00,15.73221463,9.47e-05,53.2184,42.727,85.2978,267.2828,-0.00054993,-0.00077162,0.0,0 STARLINK-3649,1 51980U 22025AA  22088.16667824 -.00077162  00000-0 -54993-3 0  9992,2 51980  53.2184  42.7270 0000947  85.2978 267.2828 15.73221463  4350,6727.834,91.532,350.336,349.06199999999984,0.0
51980.0,STARLINK-3649,PAYLOAD,2022-03-29 12:00:00,15.73205225,8.6e-05,53.2184,41.0769,85.2263,356.2545,-0.0004002,-0.00056419,0.0,0 STARLINK-3649,1 51980U 22025AA  22088.50001157 -.00056419  00000-0 -40020-3 0  9999,2 51980  53.2184  41.0769 0000860  85.2263 356.2545 15.73205225  4405,6727.88,91.533,350.324,349.167,0.0
51980.0,STARLINK-3649,PAYLOAD,2022-03-29 14:00:01,15.73200052,8.840000000000001e-05,53.2188,40.6639,90.8477,102.8567,-0.00047091,-0.00066188,0.0,0 STARLINK-3649,1 51980U 22025AA  22088.58334491 -.00066188  00000-0 -47091-3 0  9996,2 51980  53.2188  40.6639 0000884  90.8477 102.8567 15.73200052  3383,6727.895,91.533,350.355,349.165,0.0
51980.0,STARLINK-3649,PAYLOAD,2022-03-29 22:00:00,15.73165723,0.0001105,53.2192,39.0141,97.6372,184.9619,0.00044011,0.00061508,0.0,0 STARLINK-3649,1 51980U 22025AA  22088.91667824  .00061508  00000-0  44011-3 0  9990,2 51980  53.2192  39.0141 0001105  97.6372 184.9619 15.73165723  3434,6727.993,91.535,350.601,349.11400000000015,0.0
51980.0,STARLINK-3649,PAYLOAD,2022-03-30 04:00:00,15.73214967,0.0001167,53.2191,37.7788,85.9319,173.3412,-8.1716e-05,-0.00012079,0.0,0 STARLINK-3649,1 51980U 22025AA  22089.16667824 -.00012079  00000-0 -81716-4 0  9993,2 51980  53.2191  37.7788 0001167  85.9319 173.3412 15.73214967  4512,6727.853,91.532,350.50300000000016,348.932,0.0
51980.0,STARLINK-3649,PAYLOAD,2022-03-30 14:00:01,15.73184621,0.0001067,53.2191,35.7155,95.4767,5.0438,-0.00013764,-0.00019877,0.0,0 STARLINK-3649,1 51980U 22025AA  22089.58335648 -.00019877  00000-0 -13764-3 0  9995,2 51980  53.2191  35.7155 0001067  95.4767   5.0438 15.73184621  3533,6727.939,91.534,350.522,349.086,0.0
51980.0,STARLINK-3649,PAYLOAD,2022-03-30 22:00:00,15.73190773,0.0001109,53.2192,34.0663,103.0199,86.3286,0.00038145,0.00053232,0.0,0 STARLINK-3649,1 51980U 22025AA  22089.91667824  .00053232  00000-0  38145-3 0  9997,2 51980  53.2192  34.0663 0001109 103.0199  86.3286 15.73190773  3596,6727.920999999999,91.534,350.533,349.04,0.0
51980.0,STARLINK-3649,PAYLOAD,2022-03-31 12:00:00,15.7323453,0.0001059,53.2191,31.1804,98.2059,156.792,-0.00049894,-0.00070162,0.0,0 STARLINK-3649,1 51980U 22025AA  22090.50001157 -.00070162  00000-0 -49894-3 0  9991,2 51980  53.2191  31.1804 0001059  98.2059 156.7920 15.73234530  4727,6727.797,91.531,350.374,348.949,0.0
51980.0,STARLINK-3649,PAYLOAD,2022-03-31 14:00:01,15.73190793,0.0001037,53.2193,30.7675,105.9712,261.2752,0.00010459,0.00014077,0.0,0 STARLINK-3649,1 51980U 22025AA  22090.58334491  .00014077  00000-0  10459-3 0  9995,2 51980  53.2193  30.7675 0001037 105.9712 261.2752 15.73190793  3690,6727.920999999999,91.534,350.4840000000001,349.089,0.0
51980.0,STARLINK-3649,PAYLOAD,2022-03-31 20:00:01,15.73199252,0.0001053,53.2197,29.5299,108.6553,235.2868,0.00075961,0.00107353,0.0,0 STARLINK-3649,1 51980U 22025AA  22090.83334491  .00107353  00000-0  75961-3 0  9992,2 51980  53.2197  29.5299 0001053 108.6553 235.2868 15.73199252  4771,6727.897,91.533,350.471,349.05400000000014,0.0
51980.0,STARLINK-3649,PAYLOAD,2022-03-31 22:00:00,15.73234381,0.0001083,53.2197,29.1181,106.578,349.5938,0.00045892,0.00064376,0.0,0 STARLINK-3649,1 51980U 22025AA  22090.91667824  .00064376  00000-0  45892-3 0  9997,2 51980  53.2197  29.1181 0001083 106.5780 349.5938 15.73234381  3712,6727.797,91.531,350.391,348.934,0.0
51980.0,STARLINK-3649,PAYLOAD,2022-04-01 04:00:01,15.73300019,0.0001161,53.2198,27.8826,92.4777,340.5045,-0.00021973,-0.00031474,0.0,0 STARLINK-3649,1 51980U 22025AA  22091.16668981 -.00031474  00000-0 -21973-3 0  9999,2 51980  53.2198  27.8826 0001161  92.4777 340.5045 15.73300019  4825,6727.61,91.527,350.256,348.694,0.0
